CCSDS_OMM_VERS,COMMENT,CREATION_DATE,ORIGINATOR,OBJECT_NAME,OBJECT_ID,CENTER_NAME,REF_FRAME,TIME_SYSTEM,MEAN_ELEMENT_THEORY,EPOCH,MEAN_MOTION,ECCENTRICITY,INCLINATION,RA_OF_ASC_NODE,ARG_OF_PERICENTER,MEAN_ANOMALY,EPHEMERIS_TYPE,CLASSIFICATION_TYPE,NORAD_CAT_ID,ELEMENT_SET_NO,REV_AT_EPOCH,BSTAR,MEAN_MOTION_DOT,MEAN_MOTION_DDOT,SEMIMAJOR_AXIS,PERIOD,APOAPSIS,PERIAPSIS,OBJECT_TYPE,RCS_SIZE,COUNTRY_CODE,LAUNCH_DATE,SITE,DECAY_DATE,FILE,GP_ID,TLE_LINE0,TLE_LINE1,TLE_LINE2
2,GENERATED VIA SPACE-TRACK.ORG API,2012-07-06T10:44:36,18 SPCS,BREEZE-M R/B,2000-029B,EARTH,TEME,UTC,SGP4,2012-07-04T19:39:39.782016,1.00341261,0.027165,8.9214,50.7702,201.46,157.3489,0,U,26373,999,4430,0.0001,2.2e-07,0,42145.293,1435.102,36912.035,34622.281,ROCKET BODY,LARGE,CIS,2000-06-06,TTMTR,,1312159,89448379,0 BREEZE-M R/B,1 26373U 00029B   12186.81921044 +.00000022 +00000-0 +10000-3 0  9997,2 26373 008.9214 050.7702 0271650 201.4600 157.3489 01.00341261044308
2,GENERATED VIA SPACE-TRACK.ORG API,2012-07-06T20:21:26,18 SPCS,BREEZE-M R/B,2000-029B,EARTH,TEME,UTC,SGP4,2012-07-05T19:34:43.818815,1.00341657,0.0271649,8.9233,50.7587,201.4888,157.3292,0,U,26373,999,4431,0.0001,2e-07,0,42145.182,1435.096,36911.917,34622.177,ROCKET BODY,LARGE,CIS,2000-06-06,TTMTR,,1313272,89464864,0 BREEZE-M R/B,1 26373U 00029B   12187.81578494  .00000020  00000-0  10000-3 0  9993,2 26373 008.9233 050.7587 0271649 201.4888 157.3292 01.00341657 44318
2,GENERATED VIA SPACE-TRACK.ORG API,2012-07-07T09:23:36,18 SPCS,BREEZE-M R/B,2000-029B,EARTH,TEME,UTC,SGP4,2012-07-05T19:34:43.858560,1.00341656,0.0271649,8.9233,50.7587,201.4898,157.3282,0,U,26373,999,4431,0.0001,2e-07,0,42145.182,1435.096,36911.917,34622.178,ROCKET BODY,LARGE,CIS,2000-06-06,TTMTR,,1313798,89478792,0 BREEZE-M R/B,1 26373U 00029B   12187.81578540 +.00000020 +00000-0 +10000-3 0  9995,2 26373 008.9233 050.7587 0271649 201.4898 157.3282 01.00341656044317
2,GENERATED VIA SPACE-TRACK.ORG API,2012-07-08T09:17:11,18 SPCS,BREEZE-M R/B,2000-029B,EARTH,TEME,UTC,SGP4,2012-07-06T19:29:46.773024,1.00342052,0.0271631,8.9253,50.7472,201.5113,157.3118,0,U,26373,999,4432,0.0001,2e-07,0,42145.072,1435.091,36911.727,34622.146,ROCKET BODY,LARGE,CIS,2000-06-06,TTMTR,,1314290,89494630,0 BREEZE-M R/B,1 26373U 00029B   12188.81234691 +.00000020 +00000-0 +10000-3 0  9992,2 26373 008.9253 050.7472 0271631 201.5113 157.3118 01.00342052044324
2,GENERATED VIA SPACE-TRACK.ORG API,2012-07-09T08:31:41,18 SPCS,BREEZE-M R/B,2000-029B,EARTH,TEME,UTC,SGP4,2012-07-07T19:24:48.663648,1.00342451,0.0271614,8.9272,50.7358,201.5313,157.2941,0,U,26373,999,4433,0.0001,2.1e-07,0,42144.96,1435.085,36911.541,34622.109,ROCKET BODY,LARGE,CIS,2000-06-06,TTMTR,,1314641,89509173,0 BREEZE-M R/B,1 26373U 00029B   12189.80889657 +.00000021 +00000-0 +10000-3 0  9991,2 26373 008.9272 050.7358 0271614 201.5313 157.2941 01.00342451044338
2,GENERATED VIA SPACE-TRACK.ORG API,2012-07-09T08:55:50,18 SPCS,BREEZE-M R/B,2000-029B,EARTH,TEME,UTC,SGP4,2012-07-08T19:19:49.450943,1.00342853,0.0271608,8.9291,50.7243,201.5588,157.2663,0,U,26373,999,4434,0.0001,2.2e-07,0,42144.847,1435.079,36911.4,34622.024,ROCKET BODY,LARGE,CIS,2000-06-06,TTMTR,,1314659,89512277,0 BREEZE-M R/B,1 26373U 00029B   12190.80543346  .00000022  00000-0  10000-3 0  9996,2 26373 008.9291 050.7243 0271608 201.5588 157.2663 01.00342853 44347
2,GENERATED VIA SPACE-TRACK.ORG API,2012-07-10T07:50:44,18 SPCS,BREEZE-M R/B,2000-029B,EARTH,TEME,UTC,SGP4,2012-07-08T19:19:49.664351,1.00342853,0.0271597,8.9291,50.7243,201.5523,157.2733,0,U,26373,999,4434,0.0001,2.2e-07,0,42144.847,1435.079,36911.354,34622.071,ROCKET BODY,LARGE,CIS,2000-06-06,TTMTR,,1315236,89524768,0 BREEZE-M R/B,1 26373U 00029B   12190.80543593 +.00000022 +00000-0 +10000-3 0  9990,2 26373 008.9291 050.7243 0271597 201.5523 157.2733 01.00342853044341
2,GENERATED VIA SPACE-TRACK.ORG API,2012-07-11T09:43:43,18 SPCS,BREEZE-M R/B,2000-029B,EARTH,TEME,UTC,SGP4,2012-07-09T19:14:49.308575,1.00343258,0.0271597,8.9311,50.7129,201.5812,157.241,0,U,26373,999,4435,0.0001,2.5e-07,0,42144.734,1435.073,36911.237,34621.96,ROCKET BODY,LARGE,CIS,2000-06-06,TTMTR,,1315997,89542596,0 BREEZE-M R/B,1 26373U 00029B   12191.80195959 +.00000025 +00000-0 +10000-3 0  9993,2 26373 008.9311 050.7129 0271597 201.5812 157.2410 01.00343258044351
2,GENERATED VIA SPACE-TRACK.ORG API,2012-07-12T07:55:14,18 SPCS,BREEZE-M R/B,2000-029B,EARTH,TEME,UTC,SGP4,2012-07-10T19:09:48.392063,1.00343665,0.0271602,8.933,50.7015,201.6117,157.2063,0,U,26373,999,4436,0.0001,2.8e-07,0,42144.62,1435.068,36911.141,34621.829,ROCKET BODY,LARGE,CIS,2000-06-06,TTMTR,,1316560,89558288,0 BREEZE-M R/B,1 26373U 00029B   12192.79847676 +.00000028 +00000-0 +10000-3 0  9995,2 26373 008.9330 050.7015 0271602 201.6117 157.2063 01.00343665044369
2,GENERATED VIA SPACE-TRACK.ORG API,2012-07-12T14:20:49,18 SPCS,BREEZE-M R/B,2000-029B,EARTH,TEME,UTC,SGP4,2012-07-11T19:04:47.218079,1.00344075,0.0271611,8.9349,50.69,201.6431,157.1713,0,U,26373,999,4437,0.0001,3.2e-07,0,42144.505,1435.062,36911.061,34621.679,ROCKET BODY,LARGE,CIS,2000-06-06,TTMTR,,1316663,89561891,0 BREEZE-M R/B,1 26373U 00029B   12193.79499095  .00000032  00000-0  10000-3 0  9999,2 26373 008.9349 050.6900 0271611 201.6431 157.1713 01.00344075 44378
2,GENERATED VIA SPACE-TRACK.ORG API,2012-07-15T08:46:36,18 SPCS,BREEZE-M R/B,2000-029B,EARTH,TEME,UTC,SGP4,2012-07-13T18:54:45.454175,1.00344898,0.0271617,8.9388,50.6672,201.7046,157.1094,0,U,26373,999,4439,0.0001,4.3e-07,0,42144.275,1435.05,36910.85,34621.429,ROCKET BODY,LARGE,CIS,2000-06-06,TTMTR,,1318132,89604304,0 BREEZE-M R/B,1 26373U 00029B   12195.78802609 +.00000043 +00000-0 +10000-3 0  9991,2 26373 008.9388 050.6672 0271617 201.7046 157.1094 01.00344898044393
2,GENERATED VIA SPACE-TRACK.ORG API,2012-07-15T08:39:49,18 SPCS,BREEZE-M R/B,2000-029B,EARTH,TEME,UTC,SGP4,2012-07-14T18:49:44.629248,1.00345325,0.0271594,8.9407,50.6557,201.7475,157.0714,0,U,26373,999,4440,0.0001,4.9e-07,0,42144.155,1435.044,36910.63,34621.41,ROCKET BODY,LARGE,CIS,2000-06-06,TTMTR,,1318125,89599314,0 BREEZE-M R/B,1 26373U 00029B   12196.78454432  .00000049  00000-0  10000-3 0  9995,2 26373 008.9407 050.6557 0271594 201.7475 157.0714 01.00345325 44403
2,GENERATED VIA SPACE-TRACK.ORG API,2012-07-18T09:32:12,18 SPCS,BREEZE-M R/B,2000-029B,EARTH,TEME,UTC,SGP4,2012-07-16T18:39:44.070624,1.00346174,0.027157,8.9445,50.6328,201.8198,157.0162,0,U,26373,999,4442,0.0001,6.1e-07,0,42143.917,1435.032,36910.285,34621.28,ROCKET BODY,LARGE,CIS,2000-06-06,TTMTR,,1319988,89652876,0 BREEZE-M R/B,1 26373U 00029B   12198.77759341 +.00000061 +00000-0 +10000-3 0  9997,2 26373 008.9445 050.6328 0271570 201.8198 157.0162 01.00346174044420
2,GENERATED VIA SPACE-TRACK.ORG API,2012-07-18T08:27:41,18 SPCS,BREEZE-M R/B,2000-029B,EARTH,TEME,UTC,SGP4,2012-07-17T18:34:43.647455,1.00346601,0.0271477,8.9464,50.621,201.8582,156.9885,0,U,26373,999,4443,0.0001,6.6e-07,0,42143.798,1435.026,36909.77,34621.556,ROCKET BODY,LARGE,CIS,2000-06-06,TTMTR,,1319915,89645419,0 BREEZE-M R/B,1 26373U 00029B   12199.77411629  .00000066  00000-0  10000-3 0  9997,2 26373 008.9464 050.6210 0271477 201.8582 156.9885 01.00346601 44430
2,GENERATED VIA SPACE-TRACK.ORG API,2012-07-20T10:16:44,18 SPCS,BREEZE-M R/B,2000-029B,EARTH,TEME,UTC,SGP4,2012-07-18T18:29:43.351296,1.00347025,0.0271472,8.9483,50.6096,201.8953,156.9631,0,U,26373,999,4444,0.0001,7.1e-07,0,42143.679,1435.02,36909.627,34621.461,ROCKET BODY,LARGE,CIS,2000-06-06,TTMTR,,1321181,89685511,0 BREEZE-M R/B,1 26373U 00029B   12200.77064064 +.00000071 +00000-0 +10000-3 0  9993,2 26373 008.9483 050.6096 0271472 201.8953 156.9631 01.00347025044441
2,GENERATED VIA SPACE-TRACK.ORG API,2012-07-20T08:26:06,18 SPCS,BREEZE-M R/B,2000-029B,EARTH,TEME,UTC,SGP4,2012-07-19T18:24:41.983775,1.00347457,0.0271379,8.9502,50.5978,201.9478,156.9216,0,U,26373,999,4445,0.0001,7.5e-07,0,42143.558,1435.013,36909.111,34621.735,ROCKET BODY,LARGE,CIS,2000-06-06,TTMTR,,1321075,89678641,0 BREEZE-M R/B,1 26373U 00029B   12201.76715259  .00000075  00000-0  10000-3 0  9996,2 26373 008.9502 050.5978 0271379 201.9478 156.9216 01.00347457 44459
2,GENERATED VIA SPACE-TRACK.ORG API,2012-07-22T09:08:37,18 SPCS,BREEZE-M R/B,2000-029B,EARTH,TEME,UTC,SGP4,2012-07-20T18:19:40.316448,1.00347881,0.0271336,8.9521,50.5862,201.9852,156.8928,0,U,26373,999,4446,0.0001,7.8e-07,0,42143.439,1435.007,36908.808,34621.801,ROCKET BODY,LARGE,CIS,2000-06-06,TTMTR,,1322090,89716026,0 BREEZE-M R/B,1 26373U 00029B   12202.76366107 +.00000078 +00000-0 +10000-3 0  9994,2 26373 008.9521 050.5862 0271336 201.9852 156.8928 01.00347881044462
2,GENERATED VIA SPACE-TRACK.ORG API,2012-07-23T08:15:54,18 SPCS,BREEZE-M R/B,2000-029B,EARTH,TEME,UTC,SGP4,2012-07-21T18:14:37.122431,1.00348306,0.0271335,8.954,50.5748,202.0156,156.8656,0,U,26373,999,4447,0.0001,8e-07,0,42143.32,1435.001,36908.681,34621.69,ROCKET BODY,LARGE,CIS,2000-06-06,TTMTR,,1322460,89730789,0 BREEZE-M R/B,1 26373U 00029B   12203.76015188 +.00000080 +00000-0 +10000-3 0  9998,2 26373 008.9540 050.5748 0271335 202.0156 156.8656 01.00348306044476
2,GENERATED VIA SPACE-TRACK.ORG API,2012-07-24T08:32:30,18 SPCS,BREEZE-M R/B,2000-029B,EARTH,TEME,UTC,SGP4,2012-07-23T18:04:26.890463,1.00349157,0.0271315,8.9578,50.5518,202.0674,156.8077,0,U,26373,999,4449,0.0001,7.9e-07,0,42143.082,1434.989,36908.352,34621.542,ROCKET BODY,LARGE,CIS,2000-06-06,TTMTR,,1323038,89749557,0 BREEZE-M R/B,1 26373U 00029B   12205.75308901  .00000079  00000-0  10000-3 0  9995,2 26373 008.9578 050.5518 0271315 202.0674 156.8077 01.00349157 44499
2,GENERATED VIA SPACE-TRACK.ORG API,2012-07-26T08:35:29,18 SPCS,BREEZE-M R/B,2000-029B,EARTH,TEME,UTC,SGP4,2012-07-24T17:59:20.069375,1.00349586,0.0271294,8.9598,50.5403,202.0221,156.8413,0,U,26373,999,4450,0.0001,7.6e-07,0,42142.962,1434.983,36908.14,34621.514,ROCKET BODY,LARGE,CIS,2000-06-06,TTMTR,,1324455,89779637,0 BREEZE-M R/B,1 26373U 00029B   12206.74953784 +.00000076 +00000-0 +10000-3 0  9997,2 26373 008.9598 050.5403 0271294 202.0221 156.8413 01.00349586044500
